{
  "norad_id": 57047,
  "name": "SHIYAN-25 (SY-25)",
  "history": [
    {
      "epoch": "2026-03-26T06:44:33.756864",
      "apogee_km": 282.26565229008247,
      "perigee_km": 261.3574161047427,
      "latitude_deg": -68.74166593592251,
      "longitude_deg": 79.67084095999599,
      "semi_major_axis_km": 6649.948534197412,
      "eccentricity": 0.00157206,
      "inclination_deg": 96.7429,
      "raan_deg": 146.5268,
      "arg_perigee_deg": 233.9058,
      "mean_anomaly_deg": 126.0767,
      "mean_motion_rev_day": 16.00941032
    }
  ]
}